start=new Date('2022-08-05T00:00:00.000Z').valueOf();
sats=[{"NORAD_CAT_ID":"47661","DECAY_DATE":null,"APOAPSIS":"548.539","MEAN_MOTION_DOT":"0.00001110","CENTER_NAME":"EARTH","EPHEMERIS_TYPE":"0","MEAN_MOTION_DDOT":"0.0000000000000","MEAN_ELEMENT_THEORY":"SGP4","TLE_LINE2":"2 47661  53.0537 187.5581 0001920  58.7046 301.4131 15.06401271 82297","LAUNCH_DATE":"2021-02-16","ECCENTRICITY":"0.00019200","SITE":"AFETR","PERIAPSIS":"545.880","COUNTRY_CODE":"US","REV_AT_EPOCH":"8229","OBJECT_NAME":"STARLINK-2051","RA_OF_ASC_NODE":"187.5581","ELEMENT_SET_NO":"999","PERIOD":"95.592","FILE":"3529060","TLE_LINE1":"1 47661U 21012AT  22216.32322372  .00001110  00000-0  93396-4 0  9994","OBJECT_TYPE":"PAYLOAD","BSTAR":"0.00009339600000","CLASSIFICATION_TYPE":"U","INCLINATION":"53.0537","REF_FRAME":"TEME","OBJECT_ID":"2021-012AT","RCS_SIZE":"LARGE","GP_ID":"209560030","TIME_SYSTEM":"UTC","SEMIMAJOR_AXIS":"6925.345","EPOCH":"2022-08-04T07:45:26.529408","MEAN_ANOMALY":"301.4131","ARG_OF_PERICENTER":"58.7046","MEAN_MOTION":"15.06401271"},{"TIME_SYSTEM":"UTC","SEMIMAJOR_AXIS":"6925.352","EPOCH":"2022-08-04T21:37:24.640032","MEAN_ANOMALY":"293.0849","ARG_OF_PERICENTER":"67.0343","MEAN_MOTION":"15.06398761","BSTAR":"0.00000233790000","OBJECT_TYPE":"PAYLOAD","CLASSIFICATION_TYPE":"U","INCLINATION":"53.0543","REF_FRAME":"TEME","OBJECT_ID":"2021-012AU","GP_ID":"209588492","RCS_SIZE":"LARGE","REV_AT_EPOCH":"8240","COUNTRY_CODE":"US","PERIAPSIS":"545.885","OBJECT_NAME":"STARLINK-2052","RA_OF_ASC_NODE":"184.9667","ELEMENT_SET_NO":"999","PERIOD":"95.592","TLE_LINE1":"1 47662U 21012AU  22216.90097963 -.00000247  00000-0  23379-5 0  9990","FILE":"3529274","NORAD_CAT_ID":"47662","MEAN_MOTION_DOT":"-0.00000247","APOAPSIS":"548.550","DECAY_DATE":null,"EPHEMERIS_TYPE":"0","CENTER_NAME":"EARTH","MEAN_MOTION_DDOT":"0.0000000000000","TLE_LINE2":"2 47662  53.0543 184.9667 0001924  67.0343 293.0849 15.06398761 82402","MEAN_ELEMENT_THEORY":"SGP4","SITE":"AFETR","LAUNCH_DATE":"2021-02-16","ECCENTRICITY":"0.00019240"},{"ARG_OF_PERICENTER":"72.5117","MEAN_MOTION":"15.06395084","SEMIMAJOR_AXIS":"6925.364","TIME_SYSTEM":"UTC","MEAN_ANOMALY":"287.6085","EPOCH":"2022-08-04T02:27:02.143296","RCS_SIZE":"LARGE","GP_ID":"209558538","OBJECT_TYPE":"PAYLOAD","BSTAR":"0.00003494600000","INCLINATION":"53.0539","CLASSIFICATION_TYPE":"U","OBJECT_ID":"2021-012AV","REF_FRAME":"TEME","ELEMENT_SET_NO":"999","PERIOD":"95.592","FILE":"3529060","TLE_LINE1":"1 47663U 21012AV  22216.10210814  .00000239  00000-0  34946-4 0  9996","PERIAPSIS":"545.879","COUNTRY_CODE":"US","REV_AT_EPOCH":"8339","OBJECT_NAME":"STARLINK-2053","RA_OF_ASC_NODE":"108.8551","MEAN_MOTION_DDOT":"0.0000000000000","MEAN_ELEMENT_THEORY":"SGP4","TLE_LINE2":"2 47663  53.0539 108.8551 0001949  72.5117 287.6085 15.06395084 83397","ECCENTRICITY":"0.00019490","LAUNCH_DATE":"2021-02-16","SITE":"AFETR","NORAD_CAT_ID":"47663","APOAPSIS":"548.578","DECAY_DATE":null,"MEAN_MOTION_DOT":"0.00000239","CENTER_NAME":"EARTH","EPHEMERIS_TYPE":"0"},{"EPOCH":"2022-08-04T05:43:22.499040","MEAN_ANOMALY":"291.2999","TIME_SYSTEM":"UTC","SEMIMAJOR_AXIS":"6925.353","MEAN_MOTION":"15.06398418","ARG_OF_PERICENTER":"68.8186","INCLINATION":"53.0545","CLASSIFICATION_TYPE":"U","BSTAR":"-0.00002427200000","OBJECT_TYPE":"PAYLOAD","OBJECT_ID":"2021-012AW","REF_FRAME":"TEME","GP_ID":"209559789","RCS_SIZE":"LARGE","OBJECT_NAME":"STARLINK-2054","REV_AT_EPOCH":"8230","COUNTRY_CODE":"US","PERIAPSIS":"545.948","RA_OF_ASC_NODE":"187.9421","ELEMENT_SET_NO":"999","TLE_LINE1":"1 47664U 21012AW  22216.23845485 -.00000643  00000-0 -24272-4 0  9991","FILE":"3529060","PERIOD":"95.592","NORAD_CAT_ID":"47664","EPHEMERIS_TYPE":"0","CENTER_NAME":"EARTH","MEAN_MOTION_DOT":"-0.00000643","DECAY_DATE":null,"APOAPSIS":"548.489","MEAN_MOTION_DDOT":"0.0000000000000","SITE":"AFETR","ECCENTRICITY":"0.00018340","LAUNCH_DATE":"2021-02-16","TLE_LINE2":"2 47664  53.0545 187.9421 0001834  68.8186 291.2999 15.06398418 82305","MEAN_ELEMENT_THEORY":"SGP4"},{"TIME_SYSTEM":"UTC","SEMIMAJOR_AXIS":"6925.363","EPOCH":"2022-08-04T21:10:14.750688","MEAN_ANOMALY":"282.4185","ARG_OF_PERICENTER":"77.6978","MEAN_MOTION":"15.06395190","BSTAR":"0.00000647150000","OBJECT_TYPE":"PAYLOAD","INCLINATION":"53.0550","CLASSIFICATION_TYPE":"U","REF_FRAME":"TEME","OBJECT_ID":"2021-012AX","GP_ID":"209588242","RCS_SIZE":"LARGE","REV_AT_EPOCH":"8246","COUNTRY_CODE":"US","PERIAPSIS":"546.152","OBJECT_NAME":"STARLINK-2056","RA_OF_ASC_NODE":"180.0954","ELEMENT_SET_NO":"999","PERIOD":"95.592","TLE_LINE1":"1 47665U 21012AX  22216.88211517 -.00000185  00000-0  64715-5 0  9993","FILE":"3529274","NORAD_CAT_ID":"47665","MEAN_MOTION_DOT":"-0.00000185","APOAPSIS":"548.305","DECAY_DATE":null,"EPHEMERIS_TYPE":"0","CENTER_NAME":"EARTH","MEAN_MOTION_DDOT":"0.0000000000000","TLE_LINE2":"2 47665  53.0550 180.0954 0001554  77.6978 282.4185 15.06395190 82463","MEAN_ELEMENT_THEORY":"SGP4","SITE":"AFETR","ECCENTRICITY":"0.00015540","LAUNCH_DATE":"2021-02-16"},{"GP_ID":"209558288","RCS_SIZE":"LARGE","BSTAR":"-0.00002749800000","OBJECT_TYPE":"PAYLOAD","INCLINATION":"53.0539","CLASSIFICATION_TYPE":"U","OBJECT_ID":"2021-012AY","REF_FRAME":"TEME","ARG_OF_PERICENTER":"63.9254","MEAN_MOTION":"15.06398881","TIME_SYSTEM":"UTC","SEMIMAJOR_AXIS":"6925.352","EPOCH":"2022-08-04T06:45:08.181216","MEAN_ANOMALY":"296.1929","MEAN_MOTION_DDOT":"0.0000000000000","TLE_LINE2":"2 47666  53.0539 183.0951 0001894  63.9254 296.1929 15.06398881 82371","MEAN_ELEMENT_THEORY":"SGP4","SITE":"AFETR","ECCENTRICITY":"0.00018940","LAUNCH_DATE":"2021-02-16","NORAD_CAT_ID":"47666","MEAN_MOTION_DOT":"-0.00000691","APOAPSIS":"548.529","DECAY_DATE":null,"EPHEMERIS_TYPE":"0","CENTER_NAME":"EARTH","ELEMENT_SET_NO":"999","PERIOD":"95.592","TLE_LINE1":"1 47666U 21012AY  22216.28134469 -.00000691  00000-0 -27498-4 0  9997","FILE":"3529060","COUNTRY_CODE":"US","REV_AT_EPOCH":"8237","PERIAPSIS":"545.905","OBJECT_NAME":"STARLINK-2057","RA_OF_ASC_NODE":"183.0951"},{"MEAN_ANOMALY":"290.6505","EPOCH":"2022-08-04T06:28:28.473600","TIME_SYSTEM":"UTC","SEMIMAJOR_AXIS":"6925.329","MEAN_MOTION":"15.06406493","ARG_OF_PERICENTER":"69.4667","CLASSIFICATION_TYPE":"U","INCLINATION":"53.0530","OBJECT_TYPE":"PAYLOAD","BSTAR":"0.00008161300000","REF_FRAME":"TEME","OBJECT_ID":"2021-012AZ","RCS_SIZE":"LARGE","GP_ID":"209589244","OBJECT_NAME":"STARLINK-2058","PERIAPSIS":"546.014","COUNTRY_CODE":"US","REV_AT_EPOCH":"8200","RA_OF_ASC_NODE":"207.8023","ELEMENT_SET_NO":"999","FILE":"3529274","TLE_LINE1":"1 47667U 21012AZ  22216.26977400  .00000934  00000-0  81613-4 0  9993","PERIOD":"95.592","NORAD_CAT_ID":"47667","CENTER_NAME":"EARTH","EPHEMERIS_TYPE":"0","DECAY_DATE":null,"APOAPSIS":"548.374","MEAN_MOTION_DOT":"0.00000934","MEAN_MOTION_DDOT":"0.0000000000000","LAUNCH_DATE":"2021-02-16","ECCENTRICITY":"0.00017040","SITE":"AFETR","MEAN_ELEMENT_THEORY":"SGP4","TLE_LINE2":"2 47667  53.0530 207.8023 0001704  69.4667 290.6505 15.06406493 82005"},{"NORAD_CAT_ID":"47668","APOAPSIS":"548.486","DECAY_DATE":null,"MEAN_MOTION_DOT":"0.00001840","CENTER_NAME":"EARTH","EPHEMERIS_TYPE":"0","MEAN_MOTION_DDOT":"0.0000000000000","MEAN_ELEMENT_THEORY":"SGP4","TLE_LINE2":"2 47668  53.0541 184.9151 0001868  71.2276 288.8915 15.06406761 82409","ECCENTRICITY":"0.00018680","LAUNCH_DATE":"2021-02-16","SITE":"AFETR","PERIAPSIS":"545.899","REV_AT_EPOCH":"8240","COUNTRY_CODE":"US","OBJECT_NAME":"STARLINK-2059","RA_OF_ASC_NODE":"184.9151","ELEMENT_SET_NO":"999","PERIOD":"95.592","FILE":"3529274","TLE_LINE1":"1 47668U 21012BA  22216.90928702  .00001840  00000-0  14238-3 0  9991","OBJECT_TYPE":"PAYLOAD","BSTAR":"0.00014238000000","INCLINATION":"53.0541","CLASSIFICATION_TYPE":"U","REF_FRAME":"TEME","OBJECT_ID":"2021-012BA","RCS_SIZE":"LARGE","GP_ID":"209589993","SEMIMAJOR_AXIS":"6925.328","TIME_SYSTEM":"UTC","EPOCH":"2022-08-04T21:49:22.398528","MEAN_ANOMALY":"288.8915","ARG_OF_PERICENTER":"71.2276","MEAN_MOTION":"15.06406761"},{"REF_FRAME":"TEME","OBJECT_ID":"2021-012BB","OBJECT_TYPE":"PAYLOAD","BSTAR":"0.00046520000000","INCLINATION":"53.0532","CLASSIFICATION_TYPE":"U","RCS_SIZE":"LARGE","GP_ID":"209588742","SEMIMAJOR_AXIS":"6914.237","TIME_SYSTEM":"UTC","EPOCH":"2022-08-04T19:38:39.821280","MEAN_ANOMALY":"314.1442","ARG_OF_PERICENTER":"45.9714","MEAN_MOTION":"15.10032722","DECAY_DATE":null,"APOAPSIS":"537.493","MEAN_MOTION_DOT":"0.00007367","CENTER_NAME":"EARTH","EPHEMERIS_TYPE":"0","NORAD_CAT_ID":"47669","MEAN_ELEMENT_THEORY":"SGP4","TLE_LINE2":"2 47669  53.0532 108.6896 0002012  45.9714 314.1442 15.10032722 83435","LAUNCH_DATE":"2021-02-16","ECCENTRICITY":"0.00020120","SITE":"AFETR","MEAN_MOTION_DDOT":"0.0000000000000","RA_OF_ASC_NODE":"108.6896","PERIAPSIS":"534.711","REV_AT_EPOCH":"8343","COUNTRY_CODE":"US","OBJECT_NAME":"STARLINK-2060","PERIOD":"95.362","FILE":"3529274","TLE_LINE1":"1 47669U 21012BB  22216.81851645  .00007367  00000-0  46520-3 0  9992","ELEMENT_SET_NO":"999"},{"MEAN_MOTION_DDOT":"0.0000000000000","TLE_LINE2":"2 47670  53.0546 184.8491 0002191  59.1895 300.9309 15.06403291 82391","MEAN_ELEMENT_THEORY":"SGP4","SITE":"AFETR","LAUNCH_DATE":"2021-02-16","ECCENTRICITY":"0.00021910","NORAD_CAT_ID":"47670","MEAN_MOTION_DOT":"0.00001553","DECAY_DATE":null,"APOAPSIS":"548.721","EPHEMERIS_TYPE":"0","CENTER_NAME":"EARTH","ELEMENT_SET_NO":"999","PERIOD":"95.592","TLE_LINE1":"1 47670U 21012BC  22216.92402721  .00001553  00000-0  12312-3 0  9996","FILE":"3529274","REV_AT_EPOCH":"8239","COUNTRY_CODE":"US","PERIAPSIS":"545.686","OBJECT_NAME":"STARLINK-2062","RA_OF_ASC_NODE":"184.8491","GP_ID":"209588493","RCS_SIZE":"LARGE","BSTAR":"0.00012312000000","OBJECT_TYPE":"PAYLOAD","INCLINATION":"53.0546","CLASSIFICATION_TYPE":"U","OBJECT_ID":"2021-012BC","REF_FRAME":"TEME","ARG_OF_PERICENTER":"59.1895","MEAN_MOTION":"15.06403291","TIME_SYSTEM":"UTC","SEMIMAJOR_AXIS":"6925.338","EPOCH":"2022-08-04T22:10:35.950944","MEAN_ANOMALY":"300.9309"}];
